{
  "type": "FeatureCollection",
  "metadata": {
    "generated_at": "2026-05-21T10:39:10.147134+00:00",
    "source_stats": {
      "WHO": {
        "status": "ok",
        "cases_collected": 20,
        "verified_at": "2026-05-21T10:38:18.414658+00:00"
      },
      "ECDC": {
        "status": "ok",
        "cases_collected": 7,
        "verified_at": "2026-05-21T10:38:18.415095+00:00"
      },
      "ANDV_Dashboard": {
        "status": "ok",
        "cases_collected": 107,
        "verified_at": "2026-05-21T10:38:18.414007+00:00"
      },
      "CDC": {
        "status": "ok",
        "cases_collected": 6,
        "verified_at": "2026-05-21T10:38:18.415601+00:00"
      },
      "HealthMap": {
        "status": "ok",
        "cases_collected": 5,
        "verified_at": "2026-05-21T10:38:18.416409+00:00"
      },
      "GDELT": {
        "status": "ok",
        "cases_collected": 5,
        "verified_at": "2026-05-21T10:38:18.417513+00:00"
      }
    }
  },
  "features": [
    {
      "type": "Feature",
      "geometry": {
        "type": "Point",
        "coordinates": [
          -12.3,
          -37.1
        ]
      },
      "properties": {
        "case_id": "02199a9053e75b8c8f5f0eb969b454adb6a5f5d2709b43d97f30198788c0a221",
        "status": "Deceased",
        "date_reported": "2026-04-11",
        "source": "WHO",
        "latitude": -37.1,
        "longitude": -12.3,
        "location_name": "MV Hondius (Atlantic Ocean)",
        "virus_strain": "Andes",
        "source_verified_at": "2026-05-10T21:28:55.017205+00:00",
        "notes": "Dutch man, 70, first to die on board. Symptoms began Apr 6. Body removed at Saint Helena Apr 24. Index case — likely contracted virus during Patagonia shore excursion before departure."
      }
    },
    {
      "type": "Feature",
      "geometry": {
        "type": "Point",
        "coordinates": [
          28.0,
          -26.2
        ]
      },
      "properties": {
        "case_id": "068aa1bd90a3d51b52f6109223162c4632453037115a553fdd8fa801290569cf",
        "status": "Deceased",
        "date_reported": "2026-04-25",
        "source": "WHO",
        "latitude": -26.2,
        "longitude": 28.0,
        "location_name": "Johannesburg, South Africa",
        "virus_strain": "Andes",
        "source_verified_at": "2026-05-10T21:28:55.017205+00:00",
        "notes": "Dutch woman, 69, wife of index case. Disembarked at Saint Helena Apr 24, flew to Johannesburg. Removed from KLM flight KL592 before takeoff, died in hospital Apr 25."
      }
    },
    {
      "type": "Feature",
      "geometry": {
        "type": "Point",
        "coordinates": [
          -25.0,
          15.0
        ]
      },
      "properties": {
        "case_id": "33966eabae76d7adb178be080c6a2bdbbc06424705681744ea927494491bf36e",
        "status": "Confirmed",
        "date_reported": "2026-05-02",
        "source": "WHO",
        "latitude": 15.0,
        "longitude": -25.0,
        "location_name": "MV Hondius (Atlantic Ocean)",
        "virus_strain": "Andes",
        "source_verified_at": "2026-05-21T10:38:18.414658+00:00",
        "notes": "Third confirmed death occurred on board. Cluster of 6 confirmed + 2 probable Andes virus cases. WHO notified 2 May. WHO DON 2026-DON600."
      }
    },
    {
      "type": "Feature",
      "geometry": {
        "type": "Point",
        "coordinates": [
          8.541,
          47.376
        ]
      },
      "properties": {
        "case_id": "31786efa63dd6b47c3bf274ceeb5da37f2906979aea3df8bb9c60f9ac649c35a",
        "status": "Confirmed",
        "date_reported": "2026-05-06",
        "source": "WHO",
        "latitude": 47.376,
        "longitude": 8.541,
        "location_name": "Zurich, Switzerland",
        "virus_strain": "Andes",
        "source_verified_at": "2026-05-10T21:28:55.017205+00:00",
        "notes": "Swiss male, one of 30 passengers who disembarked at Saint Helena Apr 24. Confirmed positive, admitted to Zurich University Hospital. Source: bag.admin.ch"
      }
    },
    {
      "type": "Feature",
      "geometry": {
        "type": "Point",
        "coordinates": [
          4.497,
          52.16
        ]
      },
      "properties": {
        "case_id": "91b04097064c6feb77b84182a6d01207ad04fb228864dd9045beec157c43d885",
        "status": "Confirmed",
        "date_reported": "2026-05-06",
        "source": "ECDC",
        "latitude": 52.16,
        "longitude": 4.497,
        "location_name": "Leiden, Netherlands",
        "virus_strain": "Andes",
        "source_verified_at": "2026-05-10T21:28:55.017205+00:00",
        "notes": "British national, 56, ex-police officer Martin Anstee. Evacuated from ship May 6, treated at Leiden University Medical Center. Confirmed hantavirus."
      }
    },
    {
      "type": "Feature",
      "geometry": {
        "type": "Point",
        "coordinates": [
          5.853,
          51.842
        ]
      },
      "properties": {
        "case_id": "d94a4359ccf9f3b1186f2a60151304479868fc088a84f17c353f512ed6c468ab",
        "status": "Confirmed",
        "date_reported": "2026-05-07",
        "source": "ECDC",
        "latitude": 51.842,
        "longitude": 5.853,
        "location_name": "Nijmegen, Netherlands",
        "virus_strain": "Andes",
        "source_verified_at": "2026-05-10T21:28:55.017205+00:00",
        "notes": "Dutch national, 41, ship's doctor. Evacuated May 6, plane diverted to Gran Canaria due to life support failure, arrived Netherlands May 7. Tested positive at Radboud University Medical Center."
      }
    },
    {
      "type": "Feature",
      "geometry": {
        "type": "Point",
        "coordinates": [
          6.773,
          51.227
        ]
      },
      "properties": {
        "case_id": "d2ff1870a7451d44723ddac43ed7082098b390a5b75dc77a0d259c6f328699c7",
        "status": "Confirmed",
        "date_reported": "2026-05-06",
        "source": "ECDC",
        "latitude": 51.227,
        "longitude": 6.773,
        "location_name": "Düsseldorf, Germany",
        "virus_strain": "Andes",
        "source_verified_at": "2026-05-10T21:28:55.017205+00:00",
        "notes": "German national, 65, evacuated from ship May 6. Transferred to University Hospital of Düsseldorf. Confirmed hantavirus. Later tested negative for ongoing infection."
      }
    },
    {
      "type": "Feature",
      "geometry": {
        "type": "Point",
        "coordinates": [
          28.0,
          -26.2
        ]
      },
      "properties": {
        "case_id": "e6784f04bd30fd28d6aad3a618a165bb5b4952b563db56994dd64a3590b056b2",
        "status": "Confirmed",
        "date_reported": "2026-05-07",
        "source": "WHO",
        "latitude": -26.2,
        "longitude": 28.0,
        "location_name": "Johannesburg, South Africa",
        "virus_strain": "Andes",
        "source_verified_at": "2026-05-10T21:28:55.017205+00:00",
        "notes": "British national, removed from ship at Ascension Island, flown to South Africa for hospital care. Confirmed positive by National Institute for Communicable Diseases of South Africa, May 7."
      }
    },
    {
      "type": "Feature",
      "geometry": {
        "type": "Point",
        "coordinates": [
          -12.311,
          -37.068
        ]
      },
      "properties": {
        "case_id": "7263fb28848da3711ec45da810185aed4d8c19f3691f0b7859bc3fe2ceab3d10",
        "status": "Suspected",
        "date_reported": "2026-05-08",
        "source": "UKHSA",
        "latitude": -37.068,
        "longitude": -12.311,
        "location_name": "Tristan da Cunha",
        "virus_strain": "Andes",
        "source_verified_at": "2026-05-10T21:28:55.017205+00:00",
        "notes": "Island resident, suspected to have contracted virus when ship docked Apr 13–15. Hospitalized on island. British Army paratroopers from 16 Air Assault Brigade parachuted in May 10 with 3,300 kg medical supplies."
      }
    },
    {
      "type": "Feature",
      "geometry": {
        "type": "Point",
        "coordinates": [
          -0.481,
          38.345
        ]
      },
      "properties": {
        "case_id": "511cf9bb2cd8279b4f41b62f01ac9e8997709cddda07f7c15367160d788cd843",
        "status": "Suspected",
        "date_reported": "2026-05-08",
        "source": "Spanish Ministry of Health",
        "latitude": 38.345,
        "longitude": -0.481,
        "location_name": "Alicante, Spain",
        "virus_strain": "Andes",
        "source_verified_at": "2026-05-10T21:28:55.017205+00:00",
        "notes": "Spanish passenger, age 32, on KLM flight KL592 from Johannesburg. Sat two rows behind deceased Dutch woman. Symptomatic, hospitalized in Alicante. Classified lower risk. Onset May 7."
      }
    },
    {
      "type": "Feature",
      "geometry": {
        "type": "Point",
        "coordinates": [
          4.9,
          52.378
        ]
      },
      "properties": {
        "case_id": "4968c2aabf703628f4b2f4db865bf644ff04b833eb0f0a7f4858ffe7ea2ff274",
        "status": "Suspected",
        "date_reported": "2026-05-07",
        "source": "GGD Kennemerland",
        "latitude": 52.378,
        "longitude": 4.9,
        "location_name": "Amsterdam, Netherlands",
        "virus_strain": "Andes",
        "source_verified_at": "2026-05-10T21:28:55.017205+00:00",
        "notes": "KLM flight attendant on KL592 (Johannesburg–Amsterdam Apr 26). Had close contact with deceased Dutch woman. Admitted to Amsterdam University Medical Center May 7. Tested negative May 8."
      }
    },
    {
      "type": "Feature",
      "geometry": {
        "type": "Point",
        "coordinates": [
          103.82,
          1.352
        ]
      },
      "properties": {
        "case_id": "7e42ce48ea6fe4812827276d8b785e4ed60fa07705908c2f3d40b45331807972",
        "status": "Suspected",
        "date_reported": "2026-05-07",
        "source": "Singapore CDA",
        "latitude": 1.352,
        "longitude": 103.82,
        "location_name": "Singapore",
        "virus_strain": "Andes",
        "source_verified_at": "2026-05-10T21:28:55.017205+00:00",
        "notes": "Male, 67, Singapore resident. Was on MV Hondius and on same flight from Saint Helena to Johannesburg as deceased Dutch woman. Symptomatic (runny nose), awaiting test results. Source: channelnewsasia.com"
      }
    },
    {
      "type": "Feature",
      "geometry": {
        "type": "Point",
        "coordinates": [
          -95.995,
          41.257
        ]
      },
      "properties": {
        "case_id": "27e12d0c53d07c016652bb3f34f68cad9d930d2e344f314cffdd6fe502db8f22",
        "status": "Monitoring",
        "date_reported": "2026-05-10",
        "source": "CDC",
        "latitude": 41.257,
        "longitude": -95.995,
        "location_name": "Omaha, Nebraska, USA",
        "virus_strain": "Andes",
        "source_verified_at": "2026-05-10T21:28:55.017205+00:00",
        "notes": "17 American passengers repatriated on US government charter flight to Offutt Air Force Base, then transferred to National Quarantine Unit at University of Nebraska Medical Center for monitoring and evaluation. CDC Level 3 emergency response."
      }
    },
    {
      "type": "Feature",
      "geometry": {
        "type": "Point",
        "coordinates": [
          -73.6,
          45.5
        ]
      },
      "properties": {
        "case_id": "bbe8544bf8d4c78a1589510f17eac1c97f64ca731519c2030330eedbf1d2bb4a",
        "status": "Monitoring",
        "date_reported": "2026-05-07",
        "source": "Quebec Health Ministry",
        "latitude": 45.5,
        "longitude": -73.6,
        "location_name": "Quebec & Ontario, Canada",
        "virus_strain": "Andes",
        "source_verified_at": "2026-05-10T21:28:55.017205+00:00",
        "notes": "3 Canadians isolating: 2 disembarked at Saint Helena Apr 24, 1 flew on same flight as deceased Dutch woman from Saint Helena to Johannesburg."
      }
    },
    {
      "type": "Feature",
      "geometry": {
        "type": "Point",
        "coordinates": [
          -5.715,
          -15.965
        ]
      },
      "properties": {
        "case_id": "2646d3bbdc34ea409891bbb898fe6dcb8bfb0775539f61cbde2dc78b09b0cbe4",
        "status": "Monitoring",
        "date_reported": "2026-04-24",
        "source": "UKHSA",
        "latitude": -15.965,
        "longitude": -5.715,
        "location_name": "Saint Helena",
        "virus_strain": "Andes",
        "source_verified_at": "2026-05-10T21:28:55.017205+00:00",
        "notes": "~30–40 passengers disembarked at Saint Helena Apr 24, from 12 countries. All contact-traced by UK Health Security Agency. Two Britons isolating without symptoms."
      }
    },
    {
      "type": "Feature",
      "geometry": {
        "type": "Point",
        "coordinates": [
          5.3,
          52.1
        ]
      },
      "properties": {
        "case_id": "f94f225f4265b0a561904daa038ef4d2d81417419a6dec5028403a0610391871",
        "status": "Monitoring",
        "date_reported": "2026-05-07",
        "source": "GGD Kennemerland",
        "latitude": 52.1,
        "longitude": 5.3,
        "location_name": "Netherlands",
        "virus_strain": "Andes",
        "source_verified_at": "2026-05-10T21:28:55.017205+00:00",
        "notes": "All passengers on KLM flight KL592 (Johannesburg–Amsterdam Apr 26) being monitored by GGD Kennemerland. 5 high-risk contacts (assisted deceased woman leaving plane), ~50 lower-risk (within 2 rows)."
      }
    },
    {
      "type": "Feature",
      "geometry": {
        "type": "Point",
        "coordinates": [
          2.352,
          48.856
        ]
      },
      "properties": {
        "case_id": "a5c7c930d230c4db1db62266c680ddd70d51d888ff65c9ba6033ed3b03e9d011",
        "status": "Monitoring",
        "date_reported": "2026-05-10",
        "source": "French Government",
        "latitude": 48.856,
        "longitude": 2.352,
        "location_name": "Paris, France",
        "virus_strain": "Andes",
        "source_verified_at": "2026-05-10T21:28:55.017205+00:00",
        "notes": "5 French nationals evacuated from MV Hondius to Paris May 10. Hospitalized 72 hours then 45 days home quarantine. One showed symptoms fitting the virus during the evacuation flight."
      }
    },
    {
      "type": "Feature",
      "geometry": {
        "type": "Point",
        "coordinates": [
          -82.9,
          32.165
        ]
      },
      "properties": {
        "case_id": "3b21580eb32b28d35416e674894480bcad481173a66b274402fdfc35eaef7d51",
        "status": "Monitoring",
        "date_reported": "2026-05-08",
        "source": "CDC",
        "latitude": 32.165,
        "longitude": -82.9,
        "location_name": "Georgia, USA",
        "virus_strain": "Andes",
        "source_verified_at": "2026-05-10T21:28:55.017205+00:00",
        "notes": "2 Georgia residents being monitored by Georgia Department of Public Health after being on MV Hondius."
      }
    },
    {
      "type": "Feature",
      "geometry": {
        "type": "Point",
        "coordinates": [
          -0.1,
          51.5
        ]
      },
      "properties": {
        "case_id": "41344338b1496129e2a0cef15b8e67b1ac19a853b9d20eb38b24c6cab85289b2",
        "status": "Monitoring",
        "date_reported": "2026-05-08",
        "source": "UKHSA",
        "latitude": 51.5,
        "longitude": -0.1,
        "location_name": "United Kingdom",
        "virus_strain": "Andes",
        "source_verified_at": "2026-05-10T21:28:55.017205+00:00",
        "notes": "Multiple UK nationals monitored: 1 left ship at Tristan da Cunha (suspected case), 7 left at Saint Helena (2 isolating), others on KLM flight. UKHSA coordinating."
      }
    },
    {
      "type": "Feature",
      "geometry": {
        "type": "Point",
        "coordinates": [
          28.0449312843812,
          -26.2026449313684
        ]
      },
      "properties": {
        "case_id": "8af23ab9fb7359c6361e6a00e8ac38415732e21bba4392b13f216815fb2207a9",
        "status": "Confirmed",
        "date_reported": "2026-05-10",
        "source": "ANDV_Dashboard",
        "latitude": -26.2026449313684,
        "longitude": 28.0449312843812,
        "location_name": "JOHANNESBURG",
        "virus_strain": "Andes",
        "source_verified_at": "2026-05-10T21:44:50.195319+00:00",
        "notes": "Confirmed Hantavirus, British National. MV Hondus. ♂ Source: https://www.who.int/emergencies/disease-outbreak-news/item/2026-DON599"
      }
    },
    {
      "type": "Feature",
      "geometry": {
        "type": "Point",
        "coordinates": [
          5.86537040203393,
          52.6564607369127
        ]
      },
      "properties": {
        "case_id": "f653135a6ebe45bbc5cc0d5ae056a4ca7cc2d238e3e42841b1792bf69d7aec50",
        "status": "Confirmed",
        "date_reported": "2026-05-10",
        "source": "ANDV_Dashboard",
        "latitude": 52.6564607369127,
        "longitude": 5.86537040203393,
        "location_name": "NETHERLANDS",
        "virus_strain": "Andes",
        "source_verified_at": "2026-05-10T21:44:50.195319+00:00",
        "notes": "Ship crew, doctor, evacuated from ship, confirmed hantavirus. MV Hondus. Age 41 Source: https://www.cnn.com/2026/05/07/world/hantavirus-ship-tenerife-outbreak-intl"
      }
    },
    {
      "type": "Feature",
      "geometry": {
        "type": "Point",
        "coordinates": [
          8.60543114829149,
          47.4846951836513
        ]
      },
      "properties": {
        "case_id": "5759d0f3416da23e9256c6eaf79722a15d718be938dba374567df79bfd842629",
        "status": "Confirmed",
        "date_reported": "2026-05-06",
        "source": "ANDV_Dashboard",
        "latitude": 47.4846951836513,
        "longitude": 8.60543114829149,
        "location_name": "ZURICH",
        "virus_strain": "Andes",
        "source_verified_at": "2026-05-21T10:38:18.414007+00:00",
        "notes": "Departed ship, Swiss national, confirmed case. MV Hondius, Disembarked April 24th. ♂ Source: https://www.bag.admin.ch/en/newnsb/p--A7yPSfxdBqR0N9kZMC"
      }
    },
    {
      "type": "Feature",
      "geometry": {
        "type": "Point",
        "coordinates": [
          103.849683888831,
          1.32313714499279
        ]
      },
      "properties": {
        "case_id": "1e7b821792d5c1081608e36589c8d1f8d01ca95748554680ab48071cd4be4c00",
        "status": "Suspected",
        "date_reported": "2026-05-06",
        "source": "ANDV_Dashboard",
        "latitude": 1.32313714499279,
        "longitude": 103.849683888831,
        "location_name": "SINGAPORE",
        "virus_strain": "Andes",
        "source_verified_at": "2026-05-21T10:38:18.414007+00:00",
        "notes": "Has runny nose, awaiting test results. Was onbord MV Hondius, raveled on same flight from St Helena to Johannesbug on April 25.. Disembarked April 24th. Age 67, ♂ Source: https://www.channelnewsasia.com/singapore/hantavirus-mv-hondius-ncid-test-virus-isolated-cda-6106671"
      }
    },
    {
      "type": "Feature",
      "geometry": {
        "type": "Point",
        "coordinates": [
          2.31486317764351,
          47.8884756755991
        ]
      },
      "properties": {
        "case_id": "7766081bf3fde7a5cfc984462ea62050f83175c13eddf80ea9a3827624fb7ba1",
        "status": "Suspected",
        "date_reported": "2026-05-10",
        "source": "ANDV_Dashboard",
        "latitude": 47.8884756755991,
        "longitude": 2.31486317764351,
        "location_name": "FRANCE",
        "virus_strain": "Andes",
        "source_verified_at": "2026-05-10T21:44:50.195319+00:00",
        "notes": "Onboard ship, departed April 24th. CONFIRMED to have been onboard ship prior to air travel. . Disembarked April 24th Source: https://www.ctvnews.ca/canada/article/people-on-hantavirus-ship-ate-every-meal-side-by-side-even-after-first-death-passenger-says-live-updates-here/#:~:text=A%20French%20citizen%20with%20%E2%80%9Cbenign,said%20in%20a%20statement%20Thursday."
      }
    },
    {
      "type": "Feature",
      "geometry": {
        "type": "Point",
        "coordinates": [
          -4.8980032180663,
          37.5437225069258
        ]
      },
      "properties": {
        "case_id": "b9794860e6d2445b4c59684bfafdc9c81e5071a123827fe1be0cc28cc744e611",
        "status": "Suspected",
        "date_reported": "2026-05-07",
        "source": "ANDV_Dashboard",
        "latitude": 37.5437225069258,
        "longitude": -4.8980032180663,
        "location_name": "ALICANTE, SPAIN",
        "virus_strain": "Andes",
        "source_verified_at": "2026-05-21T10:38:18.414007+00:00",
        "notes": "Passenger on April 24th flight, being tested. Airplane: April 24th Flight. Age 32 Source: https://www.forbes.com/sites/maryroeloffs/2026/05/08/another-hantavirus-case-suspected-in-spanish-woman-authorities-say-latest-updates/"
      }
    },
    {
      "type": "Feature",
      "geometry": {
        "type": "Point",
        "coordinates": [
          -12.2909029504965,
          -37.0942600636779
        ]
      },
      "properties": {
        "case_id": "de6bae3d713c149bafb6b43f5f4b9fa67bba80fe6a26b9358c8bcdc0bffcc611",
        "status": "Suspected",
        "date_reported": "2026-05-10",
        "source": "ANDV_Dashboard",
        "latitude": -37.0942600636779,
        "longitude": -12.2909029504965,
        "location_name": "TRISTAN DA CUNHA",
        "virus_strain": "Andes",
        "source_verified_at": "2026-05-10T21:44:50.195319+00:00",
        "notes": "British national, Onboard ship departed, symptoms but awating test results. Disembarked April 24th Source: https://www.gov.uk/government/news/ukhsa-update-on-the-hantavirus-cruise-ship-outbreak#full-publication-update-history"
      }
    },
    {
      "type": "Feature",
      "geometry": {
        "type": "Point",
        "coordinates": [
          8.53299650874204,
          47.394318024303
        ]
      },
      "properties": {
        "case_id": "e65ac92c7c0cc29eb9d93d5d8865f9f00398453303bdd75fd5d4343c3925a244",
        "status": "Suspected",
        "date_reported": "2026-05-10",
        "source": "ANDV_Dashboard",
        "latitude": 47.394318024303,
        "longitude": 8.53299650874204,
        "location_name": "ZURICH",
        "virus_strain": "Andes",
        "source_verified_at": "2026-05-10T21:44:50.195319+00:00",
        "notes": "Departed ship, wife of case 7, in isolation. Disembarked April 24th. ♀ Source: https://www.cbc.ca/news/health/hondius-ship-hantavirus-andes-strain-9.7189281"
      }
    },
    {
      "type": "Feature",
      "geometry": {
        "type": "Point",
        "coordinates": [
          -68.3,
          -54.8
        ]
      },
      "properties": {
        "case_id": "f462515e24876b87bdfc6ecd164ed444c7b7d9b0a3e0cbab1c090831486993b7",
        "status": "Confirmed",
        "date_reported": "2026-04-01",
        "source": "WHO",
        "latitude": -54.8,
        "longitude": -68.3,
        "location_name": "Ushuaia, Argentina",
        "virus_strain": "Andes",
        "source_verified_at": "2026-05-21T10:38:18.414658+00:00",
        "notes": "⚠ Andes virus (South American source — person-to-person transmission possible). MV Hondius voyage departure 1 Apr 2026. Andes virus exposure likely during shore excursion in Patagonia. First symptom onset 6 Apr. WHO DON 2026-DON600."
      }
    },
    {
      "type": "Feature",
      "geometry": {
        "type": "Point",
        "coordinates": [
          -5.7,
          -15.9
        ]
      },
      "properties": {
        "case_id": "0dc8cdbed81ba3cda714b153bdc0115a724b5203e55a368101e55d8b21551cdb",
        "status": "Confirmed",
        "date_reported": "2026-04-24",
        "source": "WHO",
        "latitude": -15.9,
        "longitude": -5.7,
        "location_name": "Saint Helena",
        "virus_strain": "Andes",
        "source_verified_at": "2026-05-21T10:38:18.414658+00:00",
        "notes": "First ANDV death: Dutch passenger medically evacuated and died. Wife disembarked and later died in Johannesburg. WHO DON 2026-DON600."
      }
    },
    {
      "type": "Feature",
      "geometry": {
        "type": "Point",
        "coordinates": [
          28.0,
          -26.2
        ]
      },
      "properties": {
        "case_id": "71f26fc8220982347077eae2919b84d3f634594ab65e940645dcf266b68667c9",
        "status": "Confirmed",
        "date_reported": "2026-04-26",
        "source": "WHO",
        "latitude": -26.2,
        "longitude": 28.0,
        "location_name": "Johannesburg, South Africa",
        "virus_strain": "Andes",
        "source_verified_at": "2026-05-21T10:38:18.414658+00:00",
        "notes": "South Africa NICD lab-confirmed 2 cases, including 1 death (wife of first victim). British passenger also hospitalised here in critical condition. WHO DON 2026-DON600."
      }
    },
    {
      "type": "Feature",
      "geometry": {
        "type": "Point",
        "coordinates": [
          -15.4,
          28.1
        ]
      },
      "properties": {
        "case_id": "a1389beb629f6eb4aa17209802f6ce349ec4075bcd7804b940795a605625fb1d",
        "status": "Confirmed",
        "date_reported": "2026-05-02",
        "source": "WHO",
        "latitude": 28.1,
        "longitude": -15.4,
        "location_name": "MV Hondius vessel (Atlantic Ocean)",
        "virus_strain": "Andes",
        "source_verified_at": "2026-05-11T14:41:41.734581+00:00",
        "notes": "Cluster of 6 confirmed + 2 suspected Andes virus cases on board. Third death occurred on board. WHO notified 2 May 2026. WHO DON 2026-DON599."
      }
    },
    {
      "type": "Feature",
      "geometry": {
        "type": "Point",
        "coordinates": [
          -23.5,
          14.9
        ]
      },
      "properties": {
        "case_id": "71d87c3302a43828de6b650b11ab5db8f79ad198fd66e55a4c01c15bb4ac7481",
        "status": "Probable",
        "date_reported": "2026-05-03",
        "source": "WHO",
        "latitude": 14.9,
        "longitude": -23.5,
        "location_name": "Praia, Cabo Verde",
        "virus_strain": "Andes",
        "source_verified_at": "2026-05-21T10:38:18.414658+00:00",
        "notes": "MV Hondius docked at Praia 3 days; no passengers disembarked. Contact tracing for local port workers. WHO DON 2026-DON600."
      }
    },
    {
      "type": "Feature",
      "geometry": {
        "type": "Point",
        "coordinates": [
          -16.5,
          28.3
        ]
      },
      "properties": {
        "case_id": "63895d5a9e6022ea259b708208a65d12b48c3a897c3c2aa8844e63a0ad8eb082",
        "status": "Probable",
        "date_reported": "2026-05-10",
        "source": "WHO",
        "latitude": 28.3,
        "longitude": -16.5,
        "location_name": "Tenerife, Canary Islands, Spain",
        "virus_strain": "Andes",
        "source_verified_at": "2026-05-21T10:38:18.414658+00:00",
        "notes": "MV Hondius arrived Granadilla de Abona, Tenerife 10 May 2026. All passengers disembarked for repatriation flights to 23 countries. Spanish authorities managing screening. WHO DON 2026-DON600."
      }
    },
    {
      "type": "Feature",
      "geometry": {
        "type": "Point",
        "coordinates": [
          5.3,
          52.1
        ]
      },
      "properties": {
        "case_id": "b860705661fcb27361fa8fb0fc4744ef4c9412c58636952a164eeb123fbc79b6",
        "status": "Confirmed",
        "date_reported": "2026-05-08",
        "source": "WHO",
        "latitude": 52.1,
        "longitude": 5.3,
        "location_name": "Netherlands",
        "virus_strain": "Andes",
        "source_verified_at": "2026-05-21T10:38:18.414658+00:00",
        "notes": "3 lab-confirmed Andes virus cases: 1 confirmed death on board (2 May, ship flag state) + 2 confirmed survivors medically evacuated. WHO DON 2026-DON600."
      }
    },
    {
      "type": "Feature",
      "geometry": {
        "type": "Point",
        "coordinates": [
          8.5,
          47.4
        ]
      },
      "properties": {
        "case_id": "3998906f0af6b0573e2e515fce49ddb5f6505780f7590ba15afca01088b86ce1",
        "status": "Confirmed",
        "date_reported": "2026-05-08",
        "source": "WHO",
        "latitude": 47.4,
        "longitude": 8.5,
        "location_name": "Zurich, Switzerland",
        "virus_strain": "Andes",
        "source_verified_at": "2026-05-21T10:38:18.414658+00:00",
        "notes": "1 lab-confirmed Andes virus case post-disembarkation. WHO DON 2026-DON600."
      }
    },
    {
      "type": "Feature",
      "geometry": {
        "type": "Point",
        "coordinates": [
          10.5,
          51.2
        ]
      },
      "properties": {
        "case_id": "4acca5d3817d6af83076c3e335ece87abb6233e7b713b4d1f26641f99f64c70d",
        "status": "Probable",
        "date_reported": "2026-05-08",
        "source": "WHO",
        "latitude": 51.2,
        "longitude": 10.5,
        "location_name": "Germany",
        "virus_strain": "Andes",
        "source_verified_at": "2026-05-21T10:38:18.414658+00:00",
        "notes": "German nationals repatriated from MV Hondius under monitoring. WHO DON 2026-DON600."
      }
    },
    {
      "type": "Feature",
      "geometry": {
        "type": "Point",
        "coordinates": [
          -15.4,
          28.1
        ]
      },
      "properties": {
        "case_id": "a39299d27a6f7260f8362fdb421ac8d6a13fe895e8b20a898eb5eed0e0782666",
        "status": "Confirmed",
        "date_reported": "2026-05-02",
        "source": "ECDC",
        "latitude": 28.1,
        "longitude": -15.4,
        "location_name": "MV Hondius vessel (Atlantic Ocean)",
        "virus_strain": "Andes",
        "source_verified_at": "2026-05-21T10:38:18.415095+00:00",
        "notes": "ECDC notified 2 May 2026 via EU EWRS. Cluster of 6 confirmed + 2 probable Andes hantavirus cases on Dutch-flagged cruise ship. 23 nationalities on board including 9 EU/EEA countries. ECDC rapid risk assessment, 10 May 2026."
      }
    },
    {
      "type": "Feature",
      "geometry": {
        "type": "Point",
        "coordinates": [
          5.3,
          52.1
        ]
      },
      "properties": {
        "case_id": "51cf10b6c5900dd8b4f8d816e67de5576e1d178a7be5106eaf86ecc0c84c138c",
        "status": "Confirmed",
        "date_reported": "2026-05-08",
        "source": "ECDC",
        "latitude": 52.1,
        "longitude": 5.3,
        "location_name": "Netherlands",
        "virus_strain": "Andes",
        "source_verified_at": "2026-05-21T10:38:18.415095+00:00",
        "notes": "Dutch passengers among confirmed fatalities. Netherlands notified ECDC via EU EWRS on 2 May 2026. ECDC rapid risk assessment."
      }
    },
    {
      "type": "Feature",
      "geometry": {
        "type": "Point",
        "coordinates": [
          10.5,
          51.2
        ]
      },
      "properties": {
        "case_id": "ca58edddf4abf5d158be2382d04e536c85aace01d61001e72726ed97ca46cc20",
        "status": "Confirmed",
        "date_reported": "2026-05-08",
        "source": "ECDC",
        "latitude": 51.2,
        "longitude": 10.5,
        "location_name": "Germany",
        "virus_strain": "Andes",
        "source_verified_at": "2026-05-21T10:38:18.415095+00:00",
        "notes": "German national confirmed fatality linked to MV Hondius cluster. ECDC rapid risk assessment, 10 May 2026."
      }
    },
    {
      "type": "Feature",
      "geometry": {
        "type": "Point",
        "coordinates": [
          -15.4,
          28.1
        ]
      },
      "properties": {
        "case_id": "984f08d018b6b49bc7465a417b36ccd8816b69a84875d17c46ddca1d970fb1ce",
        "status": "Confirmed",
        "date_reported": "2026-05-10",
        "source": "ECDC",
        "latitude": 28.1,
        "longitude": -15.4,
        "location_name": "Tenerife, Canary Islands, Spain",
        "virus_strain": "Andes",
        "source_verified_at": "2026-05-21T10:38:18.415095+00:00",
        "notes": "MV Hondius arrived Grandilla de Abona, Tenerife. Passengers disembarking onto repatriation flights to 6 European countries and Canada. ECDC rapid risk assessment, 10 May 2026."
      }
    },
    {
      "type": "Feature",
      "geometry": {
        "type": "Point",
        "coordinates": [
          8.5,
          47.4
        ]
      },
      "properties": {
        "case_id": "86e07382d1f714cc21f886555fb11269ee705170e43d13e0bd74369656adcd74",
        "status": "Confirmed",
        "date_reported": "2026-05-08",
        "source": "ECDC",
        "latitude": 47.4,
        "longitude": 8.5,
        "location_name": "Zurich, Switzerland",
        "virus_strain": "Andes",
        "source_verified_at": "2026-05-21T10:38:18.415095+00:00",
        "notes": "Hospitalised case repatriated to Switzerland. ECDC rapid risk assessment, 10 May 2026."
      }
    },
    {
      "type": "Feature",
      "geometry": {
        "type": "Point",
        "coordinates": [
          -5.7,
          -15.9
        ]
      },
      "properties": {
        "case_id": "729c337fc079003a34cab2e76c533f22f6226d0d1ebfd0d68ac732b9ba5620a2",
        "status": "Probable",
        "date_reported": "2026-04-24",
        "source": "ECDC",
        "latitude": -15.9,
        "longitude": -5.7,
        "location_name": "Saint Helena",
        "virus_strain": "Andes",
        "source_verified_at": "2026-05-21T10:38:18.415095+00:00",
        "notes": "30 passengers disembarked at Saint Helena; all contact-traced by UK Health Security Agency. ECDC rapid risk assessment, 10 May 2026."
      }
    },
    {
      "type": "Feature",
      "geometry": {
        "type": "Point",
        "coordinates": [
          28.0,
          -26.2
        ]
      },
      "properties": {
        "case_id": "8ae4587a966617ab7ee7ff001c4dee6d13eb65c8eda75b601b4a746375b9dc92",
        "status": "Confirmed",
        "date_reported": "2026-04-26",
        "source": "ECDC",
        "latitude": -26.2,
        "longitude": 28.0,
        "location_name": "Johannesburg, South Africa",
        "virus_strain": "Andes",
        "source_verified_at": "2026-05-21T10:38:18.415095+00:00",
        "notes": "British passenger hospitalised in critical but stable condition. Second fatality (Dutch woman) also died here. ECDC rapid risk assessment, 10 May 2026."
      }
    },
    {
      "type": "Feature",
      "geometry": {
        "type": "Point",
        "coordinates": [
          -68.3,
          -54.8
        ]
      },
      "properties": {
        "case_id": "ea476a5afff542177f0acabdbbebe6bcfe59304ec645a1991dde44179ccb3a9d",
        "status": "Confirmed",
        "date_reported": "2026-04-01",
        "source": "CDC",
        "latitude": -54.8,
        "longitude": -68.3,
        "location_name": "Ushuaia, Argentina",
        "virus_strain": "Andes",
        "source_verified_at": "2026-05-21T10:38:18.415601+00:00",
        "notes": "⚠ Andes virus (South American source — person-to-person transmission possible). MV Hondius departed Ushuaia 1 April 2026. Andes virus exposure likely during shore excursion in Patagonia. CDC HAN-00528."
      }
    },
    {
      "type": "Feature",
      "geometry": {
        "type": "Point",
        "coordinates": [
          -5.7,
          -15.9
        ]
      },
      "properties": {
        "case_id": "015d73f1cd684c33bea491a24533f4fe5ab025b3c2da0b3565570c9f5e449c03",
        "status": "Confirmed",
        "date_reported": "2026-04-24",
        "source": "CDC",
        "latitude": -15.9,
        "longitude": -5.7,
        "location_name": "Saint Helena",
        "virus_strain": "Andes",
        "source_verified_at": "2026-05-21T10:38:18.415601+00:00",
        "notes": "First fatality removed from MV Hondius at Saint Helena. 30 passengers disembarked; contact tracing underway. CDC HAN-00528."
      }
    },
    {
      "type": "Feature",
      "geometry": {
        "type": "Point",
        "coordinates": [
          28.0,
          -26.2
        ]
      },
      "properties": {
        "case_id": "9e4dcfa18e17f579468a04d4fa46e26ee04e9e4613cfb9ef760b5cac287dfddd",
        "status": "Confirmed",
        "date_reported": "2026-04-26",
        "source": "CDC",
        "latitude": -26.2,
        "longitude": 28.0,
        "location_name": "Johannesburg, South Africa",
        "virus_strain": "Andes",
        "source_verified_at": "2026-05-21T10:38:18.415601+00:00",
        "notes": "Second fatality (wife of first victim) died in Johannesburg. British passenger hospitalised in critical but stable condition. CDC HAN-00528."
      }
    },
    {
      "type": "Feature",
      "geometry": {
        "type": "Point",
        "coordinates": [
          -15.4,
          28.1
        ]
      },
      "properties": {
        "case_id": "cd077090d361bc396860acd05e2c1e8c3f1f20221008316f0619d4a218162efd",
        "status": "Confirmed",
        "date_reported": "2026-05-10",
        "source": "CDC",
        "latitude": 28.1,
        "longitude": -15.4,
        "location_name": "Tenerife, Canary Islands, Spain",
        "virus_strain": "Andes",
        "source_verified_at": "2026-05-21T10:38:18.415601+00:00",
        "notes": "CDC sent team to Canary Islands 7 May 2026. MV Hondius arrived Tenerife 10 May. 17 Americans repatriated to Nebraska facility. CDC classified as Level 3 emergency response. CDC HAN-00528."
      }
    },
    {
      "type": "Feature",
      "geometry": {
        "type": "Point",
        "coordinates": [
          -99.9,
          41.5
        ]
      },
      "properties": {
        "case_id": "065b2c3886c7bceea7ffd96905e00cd6c8d9ace0e226bb263ddfb10702bdfc1f",
        "status": "Suspected",
        "date_reported": "2026-05-10",
        "source": "CDC",
        "latitude": 41.5,
        "longitude": -99.9,
        "location_name": "Nebraska, United States",
        "virus_strain": "Andes",
        "source_verified_at": "2026-05-21T10:38:18.415601+00:00",
        "notes": "17 American passengers repatriated to Nebraska facility with specialised medical capabilities for monitoring. CDC HAN-00528."
      }
    },
    {
      "type": "Feature",
      "geometry": {
        "type": "Point",
        "coordinates": [
          -23.5,
          14.9
        ]
      },
      "properties": {
        "case_id": "c1e25aecb3edd7d1dbd27a2f9f77eb903c5485e27965761995e40c215732cb78",
        "status": "Suspected",
        "date_reported": "2026-05-03",
        "source": "CDC",
        "latitude": 14.9,
        "longitude": -23.5,
        "location_name": "Praia, Cabo Verde",
        "virus_strain": "Andes",
        "source_verified_at": "2026-05-21T10:38:18.415601+00:00",
        "notes": "MV Hondius docked at Praia, Cabo Verde. No passengers disembarked as local facilities unable to handle safe evacuation. CDC HAN-00528."
      }
    },
    {
      "type": "Feature",
      "geometry": {
        "type": "Point",
        "coordinates": [
          18.4,
          -33.9
        ]
      },
      "properties": {
        "case_id": "e7e8a94bb1e87a1decf6df1026d4a1691982e1d4c3ed3746b3ea952846889881",
        "status": "Suspected",
        "date_reported": "2026-05-04",
        "source": "HealthMap",
        "latitude": -33.9,
        "longitude": 18.4,
        "location_name": "Cape Town, South Africa",
        "virus_strain": "Andes",
        "source_verified_at": "2026-05-21T10:38:18.416409+00:00",
        "notes": "HealthMap alert: Suspected hantavirus outbreak on cruise ship reported near South Africa. Three dead, several ill. MV Hondius voyage."
      }
    },
    {
      "type": "Feature",
      "geometry": {
        "type": "Point",
        "coordinates": [
          -23.5,
          14.9
        ]
      },
      "properties": {
        "case_id": "4a43db1b68bcada8141700191c2de725611d708f762047f86c8ed2995d80e429",
        "status": "Suspected",
        "date_reported": "2026-05-04",
        "source": "HealthMap",
        "latitude": 14.9,
        "longitude": -23.5,
        "location_name": "Praia, Cabo Verde",
        "virus_strain": "Andes",
        "source_verified_at": "2026-05-21T10:38:18.416409+00:00",
        "notes": "HealthMap alert: MV Hondius docked at Praia, Cabo Verde. Hantavirus outbreak on board; no disembarkation. MV Hondius voyage."
      }
    },
    {
      "type": "Feature",
      "geometry": {
        "type": "Point",
        "coordinates": [
          -15.4,
          28.1
        ]
      },
      "properties": {
        "case_id": "949310a6336562c4be3273bb7dde1e3d064a11f7d3abe46d98b8c3ea7e34db9d",
        "status": "Confirmed",
        "date_reported": "2026-05-10",
        "source": "HealthMap",
        "latitude": 28.1,
        "longitude": -15.4,
        "location_name": "Tenerife, Canary Islands, Spain",
        "virus_strain": "Andes",
        "source_verified_at": "2026-05-21T10:38:18.416409+00:00",
        "notes": "HealthMap alert: MV Hondius arrived Tenerife. Andes virus confirmed. Evacuation flights underway. MV Hondius voyage."
      }
    },
    {
      "type": "Feature",
      "geometry": {
        "type": "Point",
        "coordinates": [
          5.3,
          52.1
        ]
      },
      "properties": {
        "case_id": "38d167e6236d2f42f52909bfe6bbdc2ae41bc472e966d53814839df8df44b9b6",
        "status": "Confirmed",
        "date_reported": "2026-05-08",
        "source": "HealthMap",
        "latitude": 52.1,
        "longitude": 5.3,
        "location_name": "Netherlands",
        "virus_strain": "Andes",
        "source_verified_at": "2026-05-21T10:38:18.416409+00:00",
        "notes": "HealthMap alert: Dutch passengers confirmed with Andes hantavirus. Two fatalities. MV Hondius voyage."
      }
    },
    {
      "type": "Feature",
      "geometry": {
        "type": "Point",
        "coordinates": [
          -68.3,
          -54.8
        ]
      },
      "properties": {
        "case_id": "c0d339efc56e26bac73cb8f3008ead08ccfb4cc953f44034c77aa67d053f082d",
        "status": "Confirmed",
        "date_reported": "2026-04-01",
        "source": "HealthMap",
        "latitude": -54.8,
        "longitude": -68.3,
        "location_name": "Ushuaia, Argentina",
        "virus_strain": "Andes",
        "source_verified_at": "2026-05-21T10:38:18.416409+00:00",
        "notes": "⚠ Andes virus (South American source — person-to-person transmission possible). HealthMap alert: MV Hondius departed Ushuaia. Andes virus exposure likely during Patagonia shore excursion. MV Hondius voyage."
      }
    },
    {
      "type": "Feature",
      "geometry": {
        "type": "Point",
        "coordinates": [
          -68.3,
          -54.8
        ]
      },
      "properties": {
        "case_id": "e36542a03c93cf2d3a39eb6cf328780edb8395d4d6a6495b88ed9ef0120c8e67",
        "status": "Confirmed",
        "date_reported": "2026-04-01",
        "source": "GDELT",
        "latitude": -54.8,
        "longitude": -68.3,
        "location_name": "Ushuaia, Argentina",
        "virus_strain": "Andes",
        "source_verified_at": "2026-05-21T10:38:18.417513+00:00",
        "notes": "⚠ Andes virus (South American source — person-to-person transmission possible). GDELT news signal: MV Hondius departed Ushuaia with Andes virus exposure. Multiple international news sources. MV Hondius voyage."
      }
    },
    {
      "type": "Feature",
      "geometry": {
        "type": "Point",
        "coordinates": [
          18.4,
          -33.9
        ]
      },
      "properties": {
        "case_id": "afc8bf587b28388fb33fd2ef2da8c91e92c1df5e0d7bef049f84d31de0ffdd5f",
        "status": "Suspected",
        "date_reported": "2026-05-04",
        "source": "GDELT",
        "latitude": -33.9,
        "longitude": 18.4,
        "location_name": "Cape Town, South Africa",
        "virus_strain": "Andes",
        "source_verified_at": "2026-05-21T10:38:18.417513+00:00",
        "notes": "GDELT news signal: Hantavirus outbreak on cruise ship reported near South Africa. MV Hondius voyage."
      }
    },
    {
      "type": "Feature",
      "geometry": {
        "type": "Point",
        "coordinates": [
          -23.5,
          14.9
        ]
      },
      "properties": {
        "case_id": "270bc3f5cb5f726d5c79cdd639234a8d9c7a20b663a5658dbf9861672f6b99e8",
        "status": "Suspected",
        "date_reported": "2026-05-04",
        "source": "GDELT",
        "latitude": 14.9,
        "longitude": -23.5,
        "location_name": "Praia, Cabo Verde",
        "virus_strain": "Andes",
        "source_verified_at": "2026-05-21T10:38:18.417513+00:00",
        "notes": "GDELT news signal: MV Hondius docked at Cabo Verde with hantavirus outbreak on board. MV Hondius voyage."
      }
    },
    {
      "type": "Feature",
      "geometry": {
        "type": "Point",
        "coordinates": [
          -15.4,
          28.1
        ]
      },
      "properties": {
        "case_id": "06fc2468d50c78ce4e604ea8401158ec320d4367392088ddf3d1fc9f3f02d69f",
        "status": "Confirmed",
        "date_reported": "2026-05-10",
        "source": "GDELT",
        "latitude": 28.1,
        "longitude": -15.4,
        "location_name": "Tenerife, Canary Islands, Spain",
        "virus_strain": "Andes",
        "source_verified_at": "2026-05-21T10:38:18.417513+00:00",
        "notes": "GDELT news signal: MV Hondius arrived Tenerife; Andes virus confirmed; evacuation flights. MV Hondius voyage."
      }
    },
    {
      "type": "Feature",
      "geometry": {
        "type": "Point",
        "coordinates": [
          5.3,
          52.1
        ]
      },
      "properties": {
        "case_id": "9951dfac64d6f26eeea5c5f197f6f9b4692f58164f05eb52b132c126447b0f73",
        "status": "Confirmed",
        "date_reported": "2026-05-08",
        "source": "GDELT",
        "latitude": 52.1,
        "longitude": 5.3,
        "location_name": "Netherlands",
        "virus_strain": "Andes",
        "source_verified_at": "2026-05-21T10:38:18.417513+00:00",
        "notes": "GDELT news signal: Dutch passengers confirmed with Andes hantavirus; two fatalities. MV Hondius voyage."
      }
    },
    {
      "type": "Feature",
      "geometry": {
        "type": "Point",
        "coordinates": [
          -59.0,
          -51.7
        ]
      },
      "properties": {
        "case_id": "a2942879e8b002ef4a2914730d9bb84dbf13e74419f78348d2c6fbc24c0ab3f9",
        "status": "Suspected",
        "date_reported": "2026-04-05",
        "source": "MV_Hondius_Seed",
        "latitude": -51.7,
        "longitude": -59.0,
        "location_name": "Falkland Islands",
        "virus_strain": "Andes",
        "source_verified_at": "2026-05-21T10:39:10.144476+00:00",
        "notes": "MV Hondius voyage — stop at Falkland Islands."
      }
    },
    {
      "type": "Feature",
      "geometry": {
        "type": "Point",
        "coordinates": [
          -36.5,
          -54.2
        ]
      },
      "properties": {
        "case_id": "e5c6ce3891283858da497f5bacc18b83a0b046aa720455197a449bc72d0b3297",
        "status": "Suspected",
        "date_reported": "2026-04-08",
        "source": "MV_Hondius_Seed",
        "latitude": -54.2,
        "longitude": -36.5,
        "location_name": "South Georgia",
        "virus_strain": "Andes",
        "source_verified_at": "2026-05-21T10:39:10.144476+00:00",
        "notes": "MV Hondius voyage — stop at South Georgia."
      }
    },
    {
      "type": "Feature",
      "geometry": {
        "type": "Point",
        "coordinates": [
          -12.3,
          -37.1
        ]
      },
      "properties": {
        "case_id": "78edbd5fc03be18afb1164657c73bd0408c049ebe426381bc716f0250d07b9eb",
        "status": "Suspected",
        "date_reported": "2026-04-15",
        "source": "MV_Hondius_Seed",
        "latitude": -37.1,
        "longitude": -12.3,
        "location_name": "Tristan da Cunha",
        "virus_strain": "Andes",
        "source_verified_at": "2026-05-11T14:42:08.011042+00:00",
        "notes": "MV Hondius voyage — stop at Tristan da Cunha."
      }
    },
    {
      "type": "Feature",
      "geometry": {
        "type": "Point",
        "coordinates": [
          -14.4,
          -7.9
        ]
      },
      "properties": {
        "case_id": "750221b2e44181ffda971fae36c0056f7600052284454bc71fde2d665504fdaf",
        "status": "Suspected",
        "date_reported": "2026-04-25",
        "source": "MV_Hondius_Seed",
        "latitude": -7.9,
        "longitude": -14.4,
        "location_name": "Ascension Island",
        "virus_strain": "Andes",
        "source_verified_at": "2026-05-11T14:42:08.011042+00:00",
        "notes": "MV Hondius voyage — stop at Ascension Island."
      }
    },
    {
      "type": "Feature",
      "geometry": {
        "type": "Point",
        "coordinates": [
          8.53299650874204,
          47.394318024303
        ]
      },
      "properties": {
        "case_id": "223c3be3df779632dc6cd591ed9eb528df1a9868865b86e80894a08a3b1005c6",
        "status": "Suspected",
        "date_reported": "2026-05-11",
        "source": "ANDV_Dashboard",
        "latitude": 47.394318024303,
        "longitude": 8.53299650874204,
        "location_name": "ZURICH",
        "virus_strain": "Andes",
        "source_verified_at": "2026-05-11T15:20:56.959475+00:00",
        "notes": "Departed ship, wife of case 7, in isolation. Disembarked April 24th. ♀ Source: https://www.cbc.ca/news/health/hondius-ship-hantavirus-andes-strain-9.7189281"
      }
    },
    {
      "type": "Feature",
      "geometry": {
        "type": "Point",
        "coordinates": [
          2.31486317764351,
          47.8884756755991
        ]
      },
      "properties": {
        "case_id": "589ab4d427b87dc01f38a74355338376556c1f90bc0febd3d5d267e017e20f8e",
        "status": "Suspected",
        "date_reported": "2026-05-11",
        "source": "ANDV_Dashboard",
        "latitude": 47.8884756755991,
        "longitude": 2.31486317764351,
        "location_name": "FRANCE",
        "virus_strain": "Andes",
        "source_verified_at": "2026-05-11T15:20:56.959475+00:00",
        "notes": "Onboard ship, departed April 24th. CONFIRMED to have been onboard ship prior to air travel. . Disembarked April 24th Source: https://www.ctvnews.ca/canada/article/people-on-hantavirus-ship-ate-every-meal-side-by-side-even-after-first-death-passenger-says-live-updates-here/#:~:text=A%20French%20citizen%20with%20%E2%80%9Cbenign,said%20in%20a%20statement%20Thursday."
      }
    },
    {
      "type": "Feature",
      "geometry": {
        "type": "Point",
        "coordinates": [
          -12.2909029504965,
          -37.0942600636779
        ]
      },
      "properties": {
        "case_id": "22c9bd6449489baeda364b6744f8d1cef4dd3b414b927032b657a40906d8dcf2",
        "status": "Confirmed",
        "date_reported": "2026-05-11",
        "source": "ANDV_Dashboard",
        "latitude": -37.0942600636779,
        "longitude": -12.2909029504965,
        "location_name": "TRISTAN DA CUNHA",
        "virus_strain": "Andes",
        "source_verified_at": "2026-05-11T15:20:56.959475+00:00",
        "notes": "British national, Onboard ship departed, CONFIRMED. Disembarked April 14th Source: https://www.gov.uk/government/news/ukhsa-update-on-the-hantavirus-cruise-ship-outbreak#full-publication-update-history"
      }
    },
    {
      "type": "Feature",
      "geometry": {
        "type": "Point",
        "coordinates": [
          5.86537040203393,
          52.6564607369127
        ]
      },
      "properties": {
        "case_id": "14d25b703d74701511e3960d191c61b36c87060c6fd6f2b0bfb6160ba1c9ee1e",
        "status": "Confirmed",
        "date_reported": "2026-05-11",
        "source": "ANDV_Dashboard",
        "latitude": 52.6564607369127,
        "longitude": 5.86537040203393,
        "location_name": "NETHERLANDS",
        "virus_strain": "Andes",
        "source_verified_at": "2026-05-11T15:20:56.959475+00:00",
        "notes": "Ship crew, doctor, evacuated from ship, confirmed hantavirus. MV Hondus. Age 41 Source: https://www.cnn.com/2026/05/07/world/hantavirus-ship-tenerife-outbreak-intl"
      }
    },
    {
      "type": "Feature",
      "geometry": {
        "type": "Point",
        "coordinates": [
          28.0449312843812,
          -26.2026449313684
        ]
      },
      "properties": {
        "case_id": "8931135dd1879028934f4311334c066e8447f01f29645a487804dac32df7acb3",
        "status": "Confirmed",
        "date_reported": "2026-05-11",
        "source": "ANDV_Dashboard",
        "latitude": -26.2026449313684,
        "longitude": 28.0449312843812,
        "location_name": "JOHANNESBURG",
        "virus_strain": "Andes",
        "source_verified_at": "2026-05-11T15:20:56.959475+00:00",
        "notes": "Confirmed Hantavirus, British National. MV Hondus. ♂ Source: https://www.who.int/emergencies/disease-outbreak-news/item/2026-DON599"
      }
    },
    {
      "type": "Feature",
      "geometry": {
        "type": "Point",
        "coordinates": [
          -99.8656397728034,
          41.2957015864049
        ]
      },
      "properties": {
        "case_id": "f688b0f6856960101217bd52ce496c480a06a0572f1fa58bbedbf0d8b484b994",
        "status": "Confirmed",
        "date_reported": "2026-05-11",
        "source": "ANDV_Dashboard",
        "latitude": 41.2957015864049,
        "longitude": -99.8656397728034,
        "location_name": "UNITED STATES",
        "virus_strain": "Andes",
        "source_verified_at": "2026-05-11T15:20:56.959475+00:00",
        "notes": "Disembarked ship with Americans on May 10. No symptoms and tested positive. MV Hondus, May 10 Source: https://www.tagesschau.de/ausland/europa/hantavirus-schiff-102.html"
      }
    },
    {
      "type": "Feature",
      "geometry": {
        "type": "Point",
        "coordinates": [
          -99.1485988018821,
          41.4287332682021
        ]
      },
      "properties": {
        "case_id": "51a5dfbb9350b44c3eb2b6712b6c9ac7c5d09e030d16f8d506592efd8bec4d46",
        "status": "Suspected",
        "date_reported": "2026-05-11",
        "source": "ANDV_Dashboard",
        "latitude": 41.4287332682021,
        "longitude": -99.1485988018821,
        "location_name": "NEBRASKA, USA",
        "virus_strain": "Andes",
        "source_verified_at": "2026-05-11T15:20:56.959475+00:00",
        "notes": "Disembarked ship with Americans on May 10. Symptoms but tested negative.  MV Hondus, May 10 Source:   https://abcnews.com/International/live-updates/hantavirus-live-updates-mv-hondius-canary-islands/?id=132746955&entryId=132836441"
      }
    },
    {
      "type": "Feature",
      "geometry": {
        "type": "Point",
        "coordinates": [
          2.2,
          46.2
        ]
      },
      "properties": {
        "case_id": "fe9ad457946fef5a02f6ee219ef84e72723342cf6e07a88cea6772cd1a706a03",
        "status": "Confirmed",
        "date_reported": "2026-05-11",
        "source": "WHO",
        "latitude": 46.2,
        "longitude": 2.2,
        "location_name": "France",
        "virus_strain": "Andes",
        "source_verified_at": "2026-05-21T10:38:18.414658+00:00",
        "notes": "French Health Minister Rist confirmed French evacuee tested positive for Andes virus on 11 May 2026. WHO DON 2026-DON600 / Reuters 11 May."
      }
    },
    {
      "type": "Feature",
      "geometry": {
        "type": "Point",
        "coordinates": [
          -95.9,
          41.2
        ]
      },
      "properties": {
        "case_id": "c7ffb88720376da804a54e9fa7d5e18008554ae823a500f7112c87c072562f06",
        "status": "Suspected",
        "date_reported": "2026-05-11",
        "source": "WHO",
        "latitude": 41.2,
        "longitude": -95.9,
        "location_name": "Omaha, Nebraska, USA",
        "virus_strain": "Andes",
        "source_verified_at": "2026-05-21T10:38:18.414658+00:00",
        "notes": "American evacuee at Nebraska Medicine National Quarantine Unit tested mildly positive for Andes virus (HHS/CDC 11 May). WHO classifies as Suspected pending formal confirmation. WHO DON 2026-DON600."
      }
    },
    {
      "type": "Feature",
      "geometry": {
        "type": "Point",
        "coordinates": [
          -12.3,
          -37.1
        ]
      },
      "properties": {
        "case_id": "c9a948f32858b7dc492db89784b7e1248746e922f302cee9e19d9bbc2381d6a0",
        "status": "Suspected",
        "date_reported": "2026-05-08",
        "source": "WHO",
        "latitude": -37.1,
        "longitude": -12.3,
        "location_name": "Tristan da Cunha",
        "virus_strain": "Andes",
        "source_verified_at": "2026-05-21T10:38:18.414658+00:00",
        "notes": "UK Health Security Agency reported a suspected British case on Tristan da Cunha. UKHSA monitoring. WHO DON 2026-DON600."
      }
    },
    {
      "type": "Feature",
      "geometry": {
        "type": "Point",
        "coordinates": [
          12.5,
          41.9
        ]
      },
      "properties": {
        "case_id": "92928dfe4ad0c6b834a8175f4c27fcc38069b8749404b70370edf0719c7a634b",
        "status": "Probable",
        "date_reported": "2026-05-11",
        "source": "WHO",
        "latitude": 41.9,
        "longitude": 12.5,
        "location_name": "Italy",
        "virus_strain": "Andes",
        "source_verified_at": "2026-05-21T10:38:18.414658+00:00",
        "notes": "4 individuals under active surveillance: passengers who shared a connecting flight via Rome Fiumicino with a later-deceased MV Hondius passenger. Located in Calabria, Campania, Tuscany and Veneto. No confirmed infection as of 11 May. Italian Ministry of Health circular issued. Risk assessed as very low (ECDC)."
      }
    },
    {
      "type": "Feature",
      "geometry": {
        "type": "Point",
        "coordinates": [
          -3.7,
          40.4
        ]
      },
      "properties": {
        "case_id": "f536d753e7811ab865bde7cf2ce277eac106c8d961e887ae8e0daea1577aa455",
        "status": "Probable",
        "date_reported": "2026-05-09",
        "source": "WHO",
        "latitude": 40.4,
        "longitude": -3.7,
        "location_name": "Spain (flight contacts)",
        "virus_strain": "Andes",
        "source_verified_at": "2026-05-21T10:38:18.414658+00:00",
        "notes": "2 women in Alicante and Catalonia on same KLM flight as Hondius passenger who later died in Johannesburg — both PCR negative (Spain Min. Health, 9 May). Remain under monitoring. Also: Tenerife disembarkation site for full ship. WHO DON 2026-DON600."
      }
    },
    {
      "type": "Feature",
      "geometry": {
        "type": "Point",
        "coordinates": [
          -106.3,
          56.1
        ]
      },
      "properties": {
        "case_id": "20d1c164a4779871fef588fb55c1d4479c7ca1871781048ff78a660a54a6b244",
        "status": "Probable",
        "date_reported": "2026-05-08",
        "source": "WHO",
        "latitude": 56.1,
        "longitude": -106.3,
        "location_name": "Canada",
        "virus_strain": "Andes",
        "source_verified_at": "2026-05-21T10:38:18.414658+00:00",
        "notes": "Public Health Agency Canada: 3 Canadians self-isolating in Ontario/Quebec; 4 Canadians on board without symptoms as of 8 May. WHO DON 2026-DON600."
      }
    },
    {
      "type": "Feature",
      "geometry": {
        "type": "Point",
        "coordinates": [
          -0.1,
          51.5
        ]
      },
      "properties": {
        "case_id": "5200c8eb89f5ee9dcf34c18678b040d47fe53253128bfb2e58f341d912360c0f",
        "status": "Probable",
        "date_reported": "2026-05-08",
        "source": "WHO",
        "latitude": 51.5,
        "longitude": -0.1,
        "location_name": "United Kingdom",
        "virus_strain": "Andes",
        "source_verified_at": "2026-05-21T10:38:18.414658+00:00",
        "notes": "UKHSA contact tracing for UK nationals repatriated from MV Hondius. Separate from suspected Tristan da Cunha case. WHO DON 2026-DON600."
      }
    },
    {
      "type": "Feature",
      "geometry": {
        "type": "Point",
        "coordinates": [
          103.82,
          1.35
        ]
      },
      "properties": {
        "case_id": "a1048644ea0b6bdee210c82f4ec58c96707a3fb916893adca0c514f912374b19",
        "status": "Probable",
        "date_reported": "2026-05-08",
        "source": "WHO",
        "latitude": 1.35,
        "longitude": 103.82,
        "location_name": "Singapore",
        "virus_strain": "Andes",
        "source_verified_at": "2026-05-21T10:38:18.414658+00:00",
        "notes": "Singapore CDA: both residents under monitoring tested negative (8 May) but remain in quarantine as contacts. WHO DON 2026-DON600."
      }
    },
    {
      "type": "Feature",
      "geometry": {
        "type": "Point",
        "coordinates": [
          -58.4,
          -34.6
        ]
      },
      "properties": {
        "case_id": "bfc0de6f23500eabc1e0e858ee5ca1b4a7ab47c1fea12b51b15af1533036b30b",
        "status": "Probable",
        "date_reported": "2026-05-05",
        "source": "WHO",
        "latitude": -34.6,
        "longitude": -58.4,
        "location_name": "Buenos Aires, Argentina",
        "virus_strain": "Andes",
        "source_verified_at": "2026-05-21T10:38:18.414658+00:00",
        "notes": "⚠ Andes virus (South American source — person-to-person transmission possible). Argentine authorities conducting contact tracing for nationals on MV Hondius. Andes reservoir (long-tailed pygmy rice rat) endemic in Patagonia. WHO DON 2026-DON600."
      }
    },
    {
      "type": "Feature",
      "geometry": {
        "type": "Point",
        "coordinates": [
          -70.6,
          -33.5
        ]
      },
      "properties": {
        "case_id": "573443d4b449b65a115eee7096021343c3485d35953e9f842671937f6fb3335f",
        "status": "Probable",
        "date_reported": "2026-05-05",
        "source": "WHO",
        "latitude": -33.5,
        "longitude": -70.6,
        "location_name": "Chile",
        "virus_strain": "Andes",
        "source_verified_at": "2026-05-21T10:38:18.414658+00:00",
        "notes": "⚠ Andes virus (South American source — person-to-person transmission possible). Chilean health authorities conducting contact tracing for MV Hondius nationals. WHO DON 2026-DON600."
      }
    },
    {
      "type": "Feature",
      "geometry": {
        "type": "Point",
        "coordinates": [
          -14.4,
          -7.9
        ]
      },
      "properties": {
        "case_id": "14848b4fe070dd36021e0d58b10fdaca3e3e467df9d379522ffaa3f9c030d28a",
        "status": "Probable",
        "date_reported": "2026-04-25",
        "source": "WHO",
        "latitude": -7.9,
        "longitude": -14.4,
        "location_name": "Ascension Island",
        "virus_strain": "Andes",
        "source_verified_at": "2026-05-21T10:38:18.414658+00:00",
        "notes": "MV Hondius itinerary waypoint. WHO DON 2026-DON600."
      }
    },
    {
      "type": "Feature",
      "geometry": {
        "type": "Point",
        "coordinates": [
          -23.5243149711287,
          15.1141806359219
        ]
      },
      "properties": {
        "case_id": "fa2333933914b2a1770191b6772dc0a7738950daf2d6ead4d4721431e6bd047a",
        "status": "Monitoring",
        "date_reported": "2026-05-21",
        "source": "ANDV_Dashboard",
        "latitude": 15.1141806359219,
        "longitude": -23.5243149711287,
        "location_name": "PRAIA, CAPE VERDE",
        "virus_strain": "Andes",
        "source_verified_at": "2026-05-21T10:38:18.414007+00:00",
        "notes": "MV Hondius 146 People on board"
      }
    },
    {
      "type": "Feature",
      "geometry": {
        "type": "Point",
        "coordinates": [
          2.9796710469233,
          47.0688440225082
        ]
      },
      "properties": {
        "case_id": "c68d4bc986e0cc13b1cc16e0ccefb10abeeb53fe34fe517c75fd1c7faa46f139",
        "status": "Confirmed",
        "date_reported": "2026-05-21",
        "source": "ANDV_Dashboard",
        "latitude": 47.0688440225082,
        "longitude": 2.9796710469233,
        "location_name": "FRANCE",
        "virus_strain": "Andes",
        "source_verified_at": "2026-05-21T10:38:18.414007+00:00",
        "notes": "French passenger, started experiencing symptoms on repatriation flight back to France on 10 May. MV Hondus, May 10 Source: https://www.tagesschau.de/ausland/europa/hantavirus-schiff-102.html"
      }
    },
    {
      "type": "Feature",
      "geometry": {
        "type": "Point",
        "coordinates": [
          -62.7479125322655,
          17.320531927795
        ]
      },
      "properties": {
        "case_id": "10c874049ecf10cd0e93c9325f584aab75f9a37fc2ba026e24429feca14bcec0",
        "status": "Monitoring",
        "date_reported": "2026-05-21",
        "source": "ANDV_Dashboard",
        "latitude": 17.320531927795,
        "longitude": -62.7479125322655,
        "location_name": "Unknown location",
        "virus_strain": "Andes",
        "source_verified_at": "2026-05-21T10:38:18.414007+00:00",
        "notes": "Disembarked ship on April 24. No Details or information can be found. MV Hondius, Disembarked April 24th"
      }
    },
    {
      "type": "Feature",
      "geometry": {
        "type": "Point",
        "coordinates": [
          -99.8656397728034,
          41.2957015864049
        ]
      },
      "properties": {
        "case_id": "cddb40178c9dd344efbc21565cbdceaa1dec5b251cc21b4e697b8dc193829f87",
        "status": "Confirmed",
        "date_reported": "2026-05-21",
        "source": "ANDV_Dashboard",
        "latitude": 41.2957015864049,
        "longitude": -99.8656397728034,
        "location_name": "UNITED STATES",
        "virus_strain": "Andes",
        "source_verified_at": "2026-05-21T10:38:18.414007+00:00",
        "notes": "Disembarked ship with Americans on May 10. No symptoms and tested positive. MV Hondus, May 10 Source: https://www.tagesschau.de/ausland/europa/hantavirus-schiff-102.html"
      }
    },
    {
      "type": "Feature",
      "geometry": {
        "type": "Point",
        "coordinates": [
          -99.1485988018821,
          41.4287332682021
        ]
      },
      "properties": {
        "case_id": "a64cb907b291d1efcb16ad3980067160f74082c3cfe491d9847c57838498c097",
        "status": "Suspected",
        "date_reported": "2026-05-21",
        "source": "ANDV_Dashboard",
        "latitude": 41.4287332682021,
        "longitude": -99.1485988018821,
        "location_name": "NEBRASKA, USA",
        "virus_strain": "Andes",
        "source_verified_at": "2026-05-21T10:38:18.414007+00:00",
        "notes": "Disembarked ship with Americans on May 10. Symptoms but tested negative. MV Hondus, May 10 Source:   https://abcnews.com/International/live-updates/hantavirus-live-updates-mv-hondius-canary-islands/?id=132746955&entryId=132836441"
      }
    },
    {
      "type": "Feature",
      "geometry": {
        "type": "Point",
        "coordinates": [
          115.871396329341,
          -31.5499397751792
        ]
      },
      "properties": {
        "case_id": "a1f5c3d70978ff74071ceba0200c22ae787c73850dfbb3bf75da3833b70d178f",
        "status": "Monitoring",
        "date_reported": "2026-05-21",
        "source": "ANDV_Dashboard",
        "latitude": -31.5499397751792,
        "longitude": 115.871396329341,
        "location_name": "AUSTRALIA",
        "virus_strain": "Andes",
        "source_verified_at": "2026-05-21T10:38:18.414007+00:00",
        "notes": "Passenger on the MV Hondus, disembarked on May 10 and to be in Perth for quarantine. MV Hondus, May 10 Source: https://www.abc.net.au/news/2026-05-11/australian-repatriation-flight-hantavirus-cruise-ship/106665202"
      }
    },
    {
      "type": "Feature",
      "geometry": {
        "type": "Point",
        "coordinates": [
          4.39790786936455,
          51.2216818782218
        ]
      },
      "properties": {
        "case_id": "9ce2e468c5d87197b703dc9004e3e7e58971da65e0e2d29f07fd0ee2893ae7f5",
        "status": "Monitoring",
        "date_reported": "2026-05-21",
        "source": "ANDV_Dashboard",
        "latitude": 51.2216818782218,
        "longitude": 4.39790786936455,
        "location_name": "BELGIUM",
        "virus_strain": "Andes",
        "source_verified_at": "2026-05-21T10:38:18.414007+00:00",
        "notes": "Onboard MV Hondus, disembarked May 10 and transported to Netherlands then to Antwerp Belgium. MV Hondus, May 10 Source: https://www.belganewsagency.eu/four-belgians-cleared-after-hantavirus-contact-tracing-linked-to-cruise-ship-outbreak"
      }
    },
    {
      "type": "Feature",
      "geometry": {
        "type": "Point",
        "coordinates": [
          -70.492441602326,
          -50.0442758750425
        ]
      },
      "properties": {
        "case_id": "aff496c783129f74c1c43f14f62f85089f1fb611233bca2261ef2ba2bdebc026",
        "status": "Monitoring",
        "date_reported": "2026-05-21",
        "source": "ANDV_Dashboard",
        "latitude": -50.0442758750425,
        "longitude": -70.492441602326,
        "location_name": "MV HONDUS",
        "virus_strain": "Andes",
        "source_verified_at": "2026-05-21T10:38:18.414007+00:00",
        "notes": "Onboard MV Hondus, disembarked May 10. Unknowns where . MV Hondus, May 10"
      }
    },
    {
      "type": "Feature",
      "geometry": {
        "type": "Point",
        "coordinates": [
          -124.024189428651,
          49.9820964499233
        ]
      },
      "properties": {
        "case_id": "48aac573390d891831a8f7464e1870a7ea7ae9b9bb0021d1f2d80a091eb7c419",
        "status": "Monitoring",
        "date_reported": "2026-05-21",
        "source": "ANDV_Dashboard",
        "latitude": 49.9820964499233,
        "longitude": -124.024189428651,
        "location_name": "CANADA",
        "virus_strain": "Andes",
        "source_verified_at": "2026-05-21T10:38:18.414007+00:00",
        "notes": "Onboard MV Hondus, disembarked May 10 and will be transported to British Columbia. MV Hondus, May 10 Source: https://www.cbc.ca/news/canada/british-columbia/hantavirus-cruise-ship-canadians-b-c-9.7194477"
      }
    },
    {
      "type": "Feature",
      "geometry": {
        "type": "Point",
        "coordinates": [
          11.041585261864,
          49.6558327392474
        ]
      },
      "properties": {
        "case_id": "8e3265f28efc9f47d95e0640b6fd5c540d0cab0b52758380429c81de5b34ab0c",
        "status": "Monitoring",
        "date_reported": "2026-05-21",
        "source": "ANDV_Dashboard",
        "latitude": 49.6558327392474,
        "longitude": 11.041585261864,
        "location_name": "GERMANY",
        "virus_strain": "Andes",
        "source_verified_at": "2026-05-21T10:38:18.414007+00:00",
        "notes": "Onboard MV Hondus, disembarked May 10 and will be transported to home state in Germany. MV Hondus, May 10 Source: https://www.reuters.com/business/healthcare-pharmaceuticals/germany-monitors-four-contacts-hantavirus-hit-cruise-frankfurt-2026-05-11/"
      }
    },
    {
      "type": "Feature",
      "geometry": {
        "type": "Point",
        "coordinates": [
          23.7805309896045,
          38.0071891861383
        ]
      },
      "properties": {
        "case_id": "dcab889a6925a7ae6948c4f453c0f33b98298ff06c34606c57c570d70a26b420",
        "status": "Monitoring",
        "date_reported": "2026-05-21",
        "source": "ANDV_Dashboard",
        "latitude": 38.0071891861383,
        "longitude": 23.7805309896045,
        "location_name": "GREECE",
        "virus_strain": "Andes",
        "source_verified_at": "2026-05-21T10:38:18.414007+00:00",
        "notes": "Onboard MV Hondus, disembarked May 10 and will be transported to Athens. MV Hondus, May 10 Source: https://www.ekathimerini.com/news/1303396/greek-passenger-from-hantavirus-hit-cruise-ship-quarantined-in-athens/"
      }
    },
    {
      "type": "Feature",
      "geometry": {
        "type": "Point",
        "coordinates": [
          5.86537040203393,
          52.6564607369127
        ]
      },
      "properties": {
        "case_id": "1059cf5809c64fd044f686f1911d618d43c35c5158f27a9ee6e9924b03e6b58e",
        "status": "Confirmed",
        "date_reported": "2026-05-21",
        "source": "ANDV_Dashboard",
        "latitude": 52.6564607369127,
        "longitude": 5.86537040203393,
        "location_name": "NETHERLANDS",
        "virus_strain": "Andes",
        "source_verified_at": "2026-05-21T10:38:18.414007+00:00",
        "notes": "Ship crew, doctor, evacuated from ship, confirmed hantavirus. MV Hondius, Evacuated. Age 41 Source: https://www.cnn.com/2026/05/07/world/hantavirus-ship-tenerife-outbreak-intl"
      }
    },
    {
      "type": "Feature",
      "geometry": {
        "type": "Point",
        "coordinates": [
          -6.33068654950327,
          53.348333969002
        ]
      },
      "properties": {
        "case_id": "7127a03a082ef36bdacb94eb8bcff4c18b03e520b15c590326e9d6378b457a16",
        "status": "Monitoring",
        "date_reported": "2026-05-21",
        "source": "ANDV_Dashboard",
        "latitude": 53.348333969002,
        "longitude": -6.33068654950327,
        "location_name": "IRELAND",
        "virus_strain": "Andes",
        "source_verified_at": "2026-05-21T10:38:18.414007+00:00",
        "notes": "Onboard MV Hondus, disembarked May 10 and transported to Dublin. MV Hondus, May 10. ♀ Source: https://www.bbc.com/news/articles/czx20wzlveeo"
      }
    },
    {
      "type": "Feature",
      "geometry": {
        "type": "Point",
        "coordinates": [
          12.606521107837,
          42.5985681784949
        ]
      },
      "properties": {
        "case_id": "0027e2e51a30d6ff064f6dbaa57d2fa508521557c3d6824078d0889a43d54b7d",
        "status": "Monitoring",
        "date_reported": "2026-05-21",
        "source": "ANDV_Dashboard",
        "latitude": 42.5985681784949,
        "longitude": 12.606521107837,
        "location_name": "TENERIFE",
        "virus_strain": "Andes",
        "source_verified_at": "2026-05-21T10:38:18.414007+00:00",
        "notes": "Onboard MV Hondus, disembarked May 10 as per ocean liner data - and currently unknown location. MV Hondus, May 10"
      }
    },
    {
      "type": "Feature",
      "geometry": {
        "type": "Point",
        "coordinates": [
          -2.26420792878809,
          53.5085626912002
        ]
      },
      "properties": {
        "case_id": "9835542aa94decfc3f472c8e8bf6c4d8821fdcc6bbe8b12ea3715ad19aedda64",
        "status": "Monitoring",
        "date_reported": "2026-05-21",
        "source": "ANDV_Dashboard",
        "latitude": 53.5085626912002,
        "longitude": -2.26420792878809,
        "location_name": "UNITED KINGDOM",
        "virus_strain": "Andes",
        "source_verified_at": "2026-05-21T10:38:18.414007+00:00",
        "notes": "Onboard MV Hondus, disembarked May 10 and 72 hour quarantine in Wirral then 45 days in home isolation. MV Hondus, May 10 Source: https://www.theguardian.com/world/2026/may/10/hantavirus-cruise-ship-tenerife-evacuate-passengers-mv-hondius"
      }
    },
    {
      "type": "Feature",
      "geometry": {
        "type": "Point",
        "coordinates": [
          -3.66564730234434,
          40.4662194570303
        ]
      },
      "properties": {
        "case_id": "439023c37adb17c10610e82274a353e303a83ce3cc8d20ded0097a029362f8b6",
        "status": "Confirmed",
        "date_reported": "2026-05-21",
        "source": "ANDV_Dashboard",
        "latitude": 40.4662194570303,
        "longitude": -3.66564730234434,
        "location_name": "SPAIN",
        "virus_strain": "Andes",
        "source_verified_at": "2026-05-21T10:38:18.414007+00:00",
        "notes": "Onboard MV Hondus, disembarked May 10 and tested positve with no symptoms. MV Hondus, May 10 Source: https://elpais.com/sociedad/2026-05-11/ultima-hora-del-brote-de-hantavirus-en-directo.html"
      }
    },
    {
      "type": "Feature",
      "geometry": {
        "type": "Point",
        "coordinates": [
          -68.2685223959791,
          -54.7929234293449
        ]
      },
      "properties": {
        "case_id": "acd9eaf6dc0702415a089458566514ee27689233a763aae4c53f9462e9066459",
        "status": "Deceased",
        "date_reported": "2026-04-06",
        "source": "ANDV_Dashboard",
        "latitude": -54.7929234293449,
        "longitude": -68.2685223959791,
        "location_name": "MV HONDIUS",
        "virus_strain": "Andes",
        "source_verified_at": "2026-05-21T10:38:18.414007+00:00",
        "notes": "Initial case. MV Hondus, Passed away onboard. Age 70, ♂ Source: https://www.who.int/emergencies/disease-outbreak-news/item/2026-DON600"
      }
    },
    {
      "type": "Feature",
      "geometry": {
        "type": "Point",
        "coordinates": [
          28.6894939104231,
          -25.5866807360723
        ]
      },
      "properties": {
        "case_id": "e474ce26955e10c5a26e8bd6d46ad7391b01b0195bfbc7bdddb535454bbe0733",
        "status": "Deceased",
        "date_reported": "2026-04-21",
        "source": "ANDV_Dashboard",
        "latitude": -25.5866807360723,
        "longitude": 28.6894939104231,
        "location_name": "JOHANNESBURG",
        "virus_strain": "Andes",
        "source_verified_at": "2026-05-21T10:38:18.414007+00:00",
        "notes": "Wife of initial case, confirmed case. MV Hondius, Disembarked April 24th. Age 69, ♀ Source: https://www.who.int/emergencies/disease-outbreak-news/item/2026-DON599"
      }
    },
    {
      "type": "Feature",
      "geometry": {
        "type": "Point",
        "coordinates": [
          28.0449312843812,
          -26.2026449313684
        ]
      },
      "properties": {
        "case_id": "6b3ebc02393c7f67aad0ed7d0078ce0fd90d97331611d35be2f5bc552d00c929",
        "status": "Confirmed",
        "date_reported": "2026-05-21",
        "source": "ANDV_Dashboard",
        "latitude": -26.2026449313684,
        "longitude": 28.0449312843812,
        "location_name": "JOHANNESBURG",
        "virus_strain": "Andes",
        "source_verified_at": "2026-05-21T10:38:18.414007+00:00",
        "notes": "Confirmed Hantavirus, British National. MV Hondius, Disembarked April 24th. ♂ Source: https://www.who.int/emergencies/disease-outbreak-news/item/2026-DON599"
      }
    },
    {
      "type": "Feature",
      "geometry": {
        "type": "Point",
        "coordinates": [
          5.70790025770249,
          52.6420192625733
        ]
      },
      "properties": {
        "case_id": "0b376621bafaeb120cbf7d4ba3f3aca24d4dddb381b1f5968bbcfbf8706cb2f5",
        "status": "Deceased",
        "date_reported": "2026-04-24",
        "source": "ANDV_Dashboard",
        "latitude": 52.6420192625733,
        "longitude": 5.70790025770249,
        "location_name": "MV HONDIUS",
        "virus_strain": "Andes",
        "source_verified_at": "2026-05-21T10:38:18.414007+00:00",
        "notes": "German National, ship passenger, confirmed hantavirus. MV Hondus, Passed away onboard. ♀ Source: https://www.who.int/emergencies/disease-outbreak-news/item/2026-DON599"
      }
    },
    {
      "type": "Feature",
      "geometry": {
        "type": "Point",
        "coordinates": [
          5.65447335985001,
          52.502196886147
        ]
      },
      "properties": {
        "case_id": "4774cb6432efee4bb1edf14fd5d3856e212842ed4df8ac01a3164839cb7377cd",
        "status": "Monitoring",
        "date_reported": "2026-05-06",
        "source": "ANDV_Dashboard",
        "latitude": 52.502196886147,
        "longitude": 5.65447335985001,
        "location_name": "NETHERLANDS",
        "virus_strain": "Andes",
        "source_verified_at": "2026-05-21T10:38:18.414007+00:00",
        "notes": "Flight attendant, monitoring but not confirmed case. Symptomatic. Airplane: April 24th Flight. ♀ Source: https://nos.nl/artikel/2613426-stewardess-mogelijk-ook-besmet-met-hanta-ligt-in-amsterdam-umc"
      }
    },
    {
      "type": "Feature",
      "geometry": {
        "type": "Point",
        "coordinates": [
          103.850599402205,
          1.32382360732273
        ]
      },
      "properties": {
        "case_id": "d5929fb50d59e77850f9cb8e094650954c0092ee2b5fa080227f0a8d174b67dd",
        "status": "Monitoring",
        "date_reported": "2026-05-21",
        "source": "ANDV_Dashboard",
        "latitude": 1.32382360732273,
        "longitude": 103.850599402205,
        "location_name": "SINGAPORE",
        "virus_strain": "Andes",
        "source_verified_at": "2026-05-21T10:38:18.414007+00:00",
        "notes": "Onboard MV Hondius, traveled on same flight from St Helena to Johannesbug on April 25. no symptoms. Disembarked April 24th. Age 65, ♂ Source: https://www.channelnewsasia.com/singapore/hantavirus-mv-hondius-ncid-test-virus-isolated-cda-6106671"
      }
    },
    {
      "type": "Feature",
      "geometry": {
        "type": "Point",
        "coordinates": [
          -83.2615427121611,
          32.7512681821531
        ]
      },
      "properties": {
        "case_id": "2fe03f24668fec88061be9a4e9ec085c8018c022ae9cc7d592369c4db6a5a308",
        "status": "Monitoring",
        "date_reported": "2026-05-21",
        "source": "ANDV_Dashboard",
        "latitude": 32.7512681821531,
        "longitude": -83.2615427121611,
        "location_name": "GEORGIA, USA",
        "virus_strain": "Andes",
        "source_verified_at": "2026-05-21T10:38:18.414007+00:00",
        "notes": "Onboard ship, departed April 24th, no symptoms. Disembarked April 24th Source: https://www.cnn.com/2026/05/07/world/hantavirus-ship-tenerife-outbreak-intl"
      }
    },
    {
      "type": "Feature",
      "geometry": {
        "type": "Point",
        "coordinates": [
          -111.684107692377,
          33.3051157963806
        ]
      },
      "properties": {
        "case_id": "00a1244a3bff6de127277a69edb3bf60ecbaf578d34c5653885a749bf963b6ec",
        "status": "Monitoring",
        "date_reported": "2026-05-21",
        "source": "ANDV_Dashboard",
        "latitude": 33.3051157963806,
        "longitude": -111.684107692377,
        "location_name": "ARIZONA, USA",
        "virus_strain": "Andes",
        "source_verified_at": "2026-05-21T10:38:18.414007+00:00",
        "notes": "Onboard ship, departed April 24th, no symptoms. Disembarked April 24th Source: https://www.cnn.com/2026/05/07/world/hantavirus-ship-tenerife-outbreak-intl"
      }
    },
    {
      "type": "Feature",
      "geometry": {
        "type": "Point",
        "coordinates": [
          -97.9197338832814,
          30.911950230162
        ]
      },
      "properties": {
        "case_id": "b9d9061bd5e759bfa4b36c36d90d4791110bd3a86cfe49f49b11055b589d7685",
        "status": "Monitoring",
        "date_reported": "2026-05-21",
        "source": "ANDV_Dashboard",
        "latitude": 30.911950230162,
        "longitude": -97.9197338832814,
        "location_name": "TEXAS",
        "virus_strain": "Andes",
        "source_verified_at": "2026-05-21T10:38:18.414007+00:00",
        "notes": "Onboard ship, departed April 24th, no symptoms. Disembarked April 24th Source: https://www.dshs.texas.gov/news-alerts/dshs-statement-texas-residents-who-were-board-mv-hondius"
      }
    },
    {
      "type": "Feature",
      "geometry": {
        "type": "Point",
        "coordinates": [
          -119.365041018858,
          36.1351995367474
        ]
      },
      "properties": {
        "case_id": "b019c12da3f1baf492771b9f93a2f40d29fac8d4a5330724f708f91c07931d5f",
        "status": "Monitoring",
        "date_reported": "2026-05-21",
        "source": "ANDV_Dashboard",
        "latitude": 36.1351995367474,
        "longitude": -119.365041018858,
        "location_name": "CALIFORNIA",
        "virus_strain": "Andes",
        "source_verified_at": "2026-05-21T10:38:18.414007+00:00",
        "notes": "Undisclosed number of people being monitored. Onboard ship & departed April 24th. Disembarked April 24th Source: https://www.forbes.com/sites/maryroeloffs/2026/05/08/hantavirus-infected-cruise-ship-new-suspected-case-identified-dutch-flight-attendant-tests-negative--latest-updates/?streamIndex=0"
      }
    },
    {
      "type": "Feature",
      "geometry": {
        "type": "Point",
        "coordinates": [
          -74.2296096582939,
          40.2801598887558
        ]
      },
      "properties": {
        "case_id": "859b96b21d47b8c6e3177036968ff1553d54d26204ecdd629f7c652fd880a52b",
        "status": "Monitoring",
        "date_reported": "2026-05-21",
        "source": "ANDV_Dashboard",
        "latitude": 40.2801598887558,
        "longitude": -74.2296096582939,
        "location_name": "NEW JERSEY",
        "virus_strain": "Andes",
        "source_verified_at": "2026-05-21T10:38:18.414007+00:00",
        "notes": "Not passenger on ship, was on April 24th flight. Airplane: April 24th Flight Source: https://www.nj.gov/health/news/2026/approved/20260508a.shtml"
      }
    },
    {
      "type": "Feature",
      "geometry": {
        "type": "Point",
        "coordinates": [
          -5.70294128941257,
          -15.9522824920991
        ]
      },
      "properties": {
        "case_id": "8a74dfea98706c8db955d2f65c40b941588e6e0c3b6ba267f99760e7c2203140",
        "status": "Monitoring",
        "date_reported": "2026-05-21",
        "source": "ANDV_Dashboard",
        "latitude": -15.9522824920991,
        "longitude": -5.70294128941257,
        "location_name": "ST HELENA",
        "virus_strain": "Andes",
        "source_verified_at": "2026-05-21T10:38:18.414007+00:00",
        "notes": "Disembarked ship on April 24, no symptoms. Disembarked April 24th Source: https://www.google.com/search?q=disembarked&oq=disembarked&gs_lcrp=EgZjaHJvbWUyBggAEEUYOdIBCDMyOTVqMGo3qAIAsAIA&sourceid=chrome&ie=UTF-8"
      }
    },
    {
      "type": "Feature",
      "geometry": {
        "type": "Point",
        "coordinates": [
          -12.2909029504965,
          -37.0942600636779
        ]
      },
      "properties": {
        "case_id": "1e7629ca8ceb129c1e808c4add1e5a6b48d58f54e01a806330946821e727a6e1",
        "status": "Confirmed",
        "date_reported": "2026-05-21",
        "source": "ANDV_Dashboard",
        "latitude": -37.0942600636779,
        "longitude": -12.2909029504965,
        "location_name": "TRISTAN DA CUNHA",
        "virus_strain": "Andes",
        "source_verified_at": "2026-05-21T10:38:18.414007+00:00",
        "notes": "British national, Onboard ship departed, CONFIRMED. Disembarked April 14th Source: https://www.gov.uk/government/news/ukhsa-update-on-the-hantavirus-cruise-ship-outbreak#full-publication-update-history"
      }
    },
    {
      "type": "Feature",
      "geometry": {
        "type": "Point",
        "coordinates": [
          30.0075013689615,
          40.5814842047939
        ]
      },
      "properties": {
        "case_id": "9e2d2811c6e994e5957904c2aebceec5cd70828969e7d13a7e6ec2c80dd5b52d",
        "status": "Monitoring",
        "date_reported": "2026-05-21",
        "source": "ANDV_Dashboard",
        "latitude": 40.5814842047939,
        "longitude": 30.0075013689615,
        "location_name": "TURKEY",
        "virus_strain": "Andes",
        "source_verified_at": "2026-05-21T10:38:18.414007+00:00",
        "notes": "Onboard shio, disembarked April 24 Travel Vlogger, no symptoms. MV Hondius, Disembarked April 24th. ♂ Source: https://www.turkishminute.com/2026/05/08/turkey-says-no-hantavirus-cases-found-after-cruise-ship-outbreak-involving-turkish-nationals/"
      }
    },
    {
      "type": "Feature",
      "geometry": {
        "type": "Point",
        "coordinates": [
          -77.5893843314922,
          38.2500568611877
        ]
      },
      "properties": {
        "case_id": "dac4c2bd7bd8a1b2486176411790f027e1152027444d7433a1f0805950e137fe",
        "status": "Monitoring",
        "date_reported": "2026-05-21",
        "source": "ANDV_Dashboard",
        "latitude": 38.2500568611877,
        "longitude": -77.5893843314922,
        "location_name": "VIRGINIA",
        "virus_strain": "Andes",
        "source_verified_at": "2026-05-21T10:38:18.414007+00:00",
        "notes": "On the MV Hondius disembarked the ship April 24th and has returned home. MV Hondius, Disembarked April 24th Source: https://www.vdh.virginia.gov/blog/2026/05/07/hantavirus-statement-from-the-virginia-department-of-health/"
      }
    },
    {
      "type": "Feature",
      "geometry": {
        "type": "Point",
        "coordinates": [
          8.53299650874204,
          47.394318024303
        ]
      },
      "properties": {
        "case_id": "053caaf94718ca6c0cf163b384569767712714c3a50397337a706ca847317660",
        "status": "Suspected",
        "date_reported": "2026-05-21",
        "source": "ANDV_Dashboard",
        "latitude": 47.394318024303,
        "longitude": 8.53299650874204,
        "location_name": "ZURICH",
        "virus_strain": "Andes",
        "source_verified_at": "2026-05-21T10:38:18.414007+00:00",
        "notes": "Departed ship, wife of case 7, in isolation. MV Hondius, Disembarked April 24th. ♀ Source: https://www.cbc.ca/news/health/hondius-ship-hantavirus-andes-strain-9.7189281"
      }
    }
  ]
}
